<?xml version="1.0" encoding="UTF-8"?>
<ndm xmlns:xsi="http://www.w3.org/2001/XMLSchema-instance" xsi:noNamespaceSchemaLocation="https://sanaregistry.org/r/ndmxml_unqualified/ndmxml-2.0.0-master-2.0.xsd">
<omm id="CCSDS_OMM_VERS" version="2.0">
<header><CREATION_DATE/><ORIGINATOR/></header><body><segment><metadata><OBJECT_NAME>ONEWEB-0080</OBJECT_NAME><OBJECT_ID>2020-020C</OBJECT_ID><CENTER_NAME>EARTH</CENTER_NAME><REF_FRAME>TEME</REF_FRAME><TIME_SYSTEM>UTC</TIME_SYSTEM><MEAN_ELEMENT_THEORY>SGP4</MEAN_ELEMENT_THEORY></metadata><data><meanElements><EPOCH>2024-07-08T22:23:25.914048</EPOCH><MEAN_MOTION>13.11413856</MEAN_MOTION><ECCENTRICITY>.0002058</ECCENTRICITY><INCLINATION>87.8970</INCLINATION><RA_OF_ASC_NODE>162.0258</RA_OF_ASC_NODE><ARG_OF_PERICENTER>73.0496</ARG_OF_PERICENTER><MEAN_ANOMALY>287.0857</MEAN_ANOMALY></meanElements><tleParameters><EPHEMERIS_TYPE>0</EPHEMERIS_TYPE><CLASSIFICATION_TYPE>U</CLASSIFICATION_TYPE><NORAD_CAT_ID>45426</NORAD_CAT_ID><ELEMENT_SET_NO>999</ELEMENT_SET_NO><REV_AT_EPOCH>20987</REV_AT_EPOCH><BSTAR>-.40082E-3</BSTAR><MEAN_MOTION_DOT>-.129E-5</MEAN_MOTION_DOT><MEAN_MOTION_DDOT>0</MEAN_MOTION_DDOT></tleParameters></data></segment></body></omm>
<omm id="CCSDS_OMM_VERS" version="2.0">
<header><CREATION_DATE/><ORIGINATOR/></header><body><segment><metadata><OBJECT_NAME>ONEWEB-0090</OBJECT_NAME><OBJECT_ID>2020-020D</OBJECT_ID><CENTER_NAME>EARTH</CENTER_NAME><REF_FRAME>TEME</REF_FRAME><TIME_SYSTEM>UTC</TIME_SYSTEM><MEAN_ELEMENT_THEORY>SGP4</MEAN_ELEMENT_THEORY></metadata><data><meanElements><EPOCH>2024-07-08T22:47:49.992288</EPOCH><MEAN_MOTION>13.11415773</MEAN_MOTION><ECCENTRICITY>.0002047</ECCENTRICITY><INCLINATION>87.8979</INCLINATION><RA_OF_ASC_NODE>162.0064</RA_OF_ASC_NODE><ARG_OF_PERICENTER>85.1438</ARG_OF_PERICENTER><MEAN_ANOMALY>274.9923</MEAN_ANOMALY></meanElements><tleParameters><EPHEMERIS_TYPE>0</EPHEMERIS_TYPE><CLASSIFICATION_TYPE>U</CLASSIFICATION_TYPE><NORAD_CAT_ID>45427</NORAD_CAT_ID><ELEMENT_SET_NO>999</ELEMENT_SET_NO><REV_AT_EPOCH>20984</REV_AT_EPOCH><BSTAR>-.16106E-2</BSTAR><MEAN_MOTION_DOT>-.558E-5</MEAN_MOTION_DOT><MEAN_MOTION_DDOT>0</MEAN_MOTION_DDOT></tleParameters></data></segment></body></omm>
<omm id="CCSDS_OMM_VERS" version="2.0">
<header><CREATION_DATE/><ORIGINATOR/></header><body><segment><metadata><OBJECT_NAME>ONEWEB-0061</OBJECT_NAME><OBJECT_ID>2020-020E</OBJECT_ID><CENTER_NAME>EARTH</CENTER_NAME><REF_FRAME>TEME</REF_FRAME><TIME_SYSTEM>UTC</TIME_SYSTEM><MEAN_ELEMENT_THEORY>SGP4</MEAN_ELEMENT_THEORY></metadata><data><meanElements><EPOCH>2024-07-09T05:03:39.727872</EPOCH><MEAN_MOTION>13.11418263</MEAN_MOTION><ECCENTRICITY>.0002096</ECCENTRICITY><INCLINATION>87.8973</INCLINATION><RA_OF_ASC_NODE>161.9520</RA_OF_ASC_NODE><ARG_OF_PERICENTER>82.7623</ARG_OF_PERICENTER><MEAN_ANOMALY>277.3743</MEAN_ANOMALY></meanElements><tleParameters><EPHEMERIS_TYPE>0</EPHEMERIS_TYPE><CLASSIFICATION_TYPE>U</CLASSIFICATION_TYPE><NORAD_CAT_ID>45428</NORAD_CAT_ID><ELEMENT_SET_NO>999</ELEMENT_SET_NO><REV_AT_EPOCH>20983</REV_AT_EPOCH><BSTAR>.13145E-2</BSTAR><MEAN_MOTION_DOT>.479E-5</MEAN_MOTION_DOT><MEAN_MOTION_DDOT>0</MEAN_MOTION_DDOT></tleParameters></data></segment></body></omm>
<omm id="CCSDS_OMM_VERS" version="2.0">
<header><CREATION_DATE/><ORIGINATOR/></header><body><segment><metadata><OBJECT_NAME>ONEWEB-0081</OBJECT_NAME><OBJECT_ID>2020-020F</OBJECT_ID><CENTER_NAME>EARTH</CENTER_NAME><REF_FRAME>TEME</REF_FRAME><TIME_SYSTEM>UTC</TIME_SYSTEM><MEAN_ELEMENT_THEORY>SGP4</MEAN_ELEMENT_THEORY></metadata><data><meanElements><EPOCH>2024-07-08T21:17:31.011072</EPOCH><MEAN_MOTION>13.11417906</MEAN_MOTION><ECCENTRICITY>.000231</ECCENTRICITY><INCLINATION>87.8975</INCLINATION><RA_OF_ASC_NODE>162.0340</RA_OF_ASC_NODE><ARG_OF_PERICENTER>82.4363</ARG_OF_PERICENTER><MEAN_ANOMALY>277.7027</MEAN_ANOMALY></meanElements><tleParameters><EPHEMERIS_TYPE>0</EPHEMERIS_TYPE><CLASSIFICATION_TYPE>U</CLASSIFICATION_TYPE><NORAD_CAT_ID>45429</NORAD_CAT_ID><ELEMENT_SET_NO>999</ELEMENT_SET_NO><REV_AT_EPOCH>20990</REV_AT_EPOCH><BSTAR>-.57577E-3</BSTAR><MEAN_MOTION_DOT>-.191E-5</MEAN_MOTION_DOT><MEAN_MOTION_DDOT>0</MEAN_MOTION_DDOT></tleParameters></data></segment></body></omm>
<omm id="CCSDS_OMM_VERS" version="2.0">
<header><CREATION_DATE/><ORIGINATOR/></header><body><segment><metadata><OBJECT_NAME>ONEWEB-0069</OBJECT_NAME><OBJECT_ID>2020-020G</OBJECT_ID><CENTER_NAME>EARTH</CENTER_NAME><REF_FRAME>TEME</REF_FRAME><TIME_SYSTEM>UTC</TIME_SYSTEM><MEAN_ELEMENT_THEORY>SGP4</MEAN_ELEMENT_THEORY></metadata><data><meanElements><EPOCH>2024-07-08T22:52:43.791168</EPOCH><MEAN_MOTION>13.11417447</MEAN_MOTION><ECCENTRICITY>.0001999</ECCENTRICITY><INCLINATION>87.8976</INCLINATION><RA_OF_ASC_NODE>162.0096</RA_OF_ASC_NODE><ARG_OF_PERICENTER>81.7613</ARG_OF_PERICENTER><MEAN_ANOMALY>278.3741</MEAN_ANOMALY></meanElements><tleParameters><EPHEMERIS_TYPE>0</EPHEMERIS_TYPE><CLASSIFICATION_TYPE>U</CLASSIFICATION_TYPE><NORAD_CAT_ID>45430</NORAD_CAT_ID><ELEMENT_SET_NO>999</ELEMENT_SET_NO><REV_AT_EPOCH>20984</REV_AT_EPOCH><BSTAR>-.15134E-2</BSTAR><MEAN_MOTION_DOT>-.524E-5</MEAN_MOTION_DOT><MEAN_MOTION_DDOT>0</MEAN_MOTION_DDOT></tleParameters></data></segment></body></omm>
<omm id="CCSDS_OMM_VERS" version="2.0">
<header><CREATION_DATE/><ORIGINATOR/></header><body><segment><metadata><OBJECT_NAME>ONEWEB-0027</OBJECT_NAME><OBJECT_ID>2020-020J</OBJECT_ID><CENTER_NAME>EARTH</CENTER_NAME><REF_FRAME>TEME</REF_FRAME><TIME_SYSTEM>UTC</TIME_SYSTEM><MEAN_ELEMENT_THEORY>SGP4</MEAN_ELEMENT_THEORY></metadata><data><meanElements><EPOCH>2024-07-09T03:00:26.040960</EPOCH><MEAN_MOTION>13.17651541</MEAN_MOTION><ECCENTRICITY>.0001762</ECCENTRICITY><INCLINATION>87.9179</INCLINATION><RA_OF_ASC_NODE>146.8283</RA_OF_ASC_NODE><ARG_OF_PERICENTER>88.0612</ARG_OF_PERICENTER><MEAN_ANOMALY>272.0721</MEAN_ANOMALY></meanElements><tleParameters><EPHEMERIS_TYPE>0</EPHEMERIS_TYPE><CLASSIFICATION_TYPE>U</CLASSIFICATION_TYPE><NORAD_CAT_ID>45432</NORAD_CAT_ID><ELEMENT_SET_NO>999</ELEMENT_SET_NO><REV_AT_EPOCH>21311</REV_AT_EPOCH><BSTAR>-.13051E-5</BSTAR><MEAN_MOTION_DOT>.12E-6</MEAN_MOTION_DOT><MEAN_MOTION_DDOT>0</MEAN_MOTION_DDOT></tleParameters></data></segment></body></omm>
<omm id="CCSDS_OMM_VERS" version="2.0">
<header><CREATION_DATE/><ORIGINATOR/></header><body><segment><metadata><OBJECT_NAME>ONEWEB-0064</OBJECT_NAME><OBJECT_ID>2020-020K</OBJECT_ID><CENTER_NAME>EARTH</CENTER_NAME><REF_FRAME>TEME</REF_FRAME><TIME_SYSTEM>UTC</TIME_SYSTEM><MEAN_ELEMENT_THEORY>SGP4</MEAN_ELEMENT_THEORY></metadata><data><meanElements><EPOCH>2024-07-09T03:38:22.195392</EPOCH><MEAN_MOTION>13.11414895</MEAN_MOTION><ECCENTRICITY>.0001819</ECCENTRICITY><INCLINATION>87.8974</INCLINATION><RA_OF_ASC_NODE>161.9878</RA_OF_ASC_NODE><ARG_OF_PERICENTER>83.5315</ARG_OF_PERICENTER><MEAN_ANOMALY>276.6020</MEAN_ANOMALY></meanElements><tleParameters><EPHEMERIS_TYPE>0</EPHEMERIS_TYPE><CLASSIFICATION_TYPE>U</CLASSIFICATION_TYPE><NORAD_CAT_ID>45433</NORAD_CAT_ID><ELEMENT_SET_NO>999</ELEMENT_SET_NO><REV_AT_EPOCH>20989</REV_AT_EPOCH><BSTAR>-.18067E-3</BSTAR><MEAN_MOTION_DOT>-.51E-6</MEAN_MOTION_DOT><MEAN_MOTION_DDOT>0</MEAN_MOTION_DDOT></tleParameters></data></segment></body></omm>

</ndm>
