ONEWEB-0080             
1 45426U 20020C   24190.93293882 -.00000129  00000+0 -40082-3 0  9995
2 45426  87.8970 162.0258 0002058  73.0496 287.0857 13.11413856209876
ONEWEB-0090             
1 45427U 20020D   24190.94988417 -.00000558  00000+0 -16106-2 0  9997
2 45427  87.8979 162.0064 0002047  85.1438 274.9923 13.11415773209845
ONEWEB-0061             
1 45428U 20020E   24191.21087648  .00000479  00000+0  13145-2 0  9995
2 45428  87.8973 161.9520 0002096  82.7623 277.3743 13.11418263209831
ONEWEB-0081             
1 45429U 20020F   24190.88716448 -.00000191  00000+0 -57577-3 0  9996
2 45429  87.8975 162.0340 0002310  82.4363 277.7027 13.11417906209903
ONEWEB-0069             
1 45430U 20020G   24190.95328462 -.00000524  00000+0 -15134-2 0  9993
2 45430  87.8976 162.0096 0001999  81.7613 278.3741 13.11417447209849
ONEWEB-0027             
1 45432U 20020J   24191.12530140  .00000012  00000+0 -13051-5 0  9993
2 45432  87.9179 146.8283 0001762  88.0612 272.0721 13.17651541213117
ONEWEB-0064             
1 45433U 20020K   24191.15164578 -.00000051  00000+0 -18067-3 0  9999
2 45433  87.8974 161.9878 0001819  83.5315 276.6020 13.11414895209896
